STARLINK-30092          
1 57467U 23107L   26068.08801585 -.00004529  00000+0 -15913-3 0  9992
2 57467  43.0022 339.6211 0002381 265.1319  94.9260 15.26757276145051
FLOCK 4G-5              
1 62663U 25009BG  26068.45638436  .00011278  00000+0  40688-3 0  9997
2 62663  97.4058 151.2478 0002094 314.5072  45.5996 15.28679529 63699
